{
  "type": "FeatureCollection",
  "features": [
    {
      "type": "Feature",
      "properties": {
        "norad_id": 66962,
        "name": "STARLINK-35874",
        "group": "last-30-days",
        "lat": 39.93412588546251,
        "lon": -173.03020201195585,
        "alt_km": 315.11175381689554,
        "timestamp": "2025-12-19T22:41:51.098829+00:00",
        "meta_object_name": "STARLINK-35874",
        "meta_object_id": "2025-288D",
        "meta_epoch": "2025-12-19T16:20:51.302112",
        "meta_mean_motion": 15.83646759,
        "meta_eccentricity": 0.0002308,
        "meta_inclination": 43.001,
        "meta_ra_of_asc_node": 124.6533,
        "meta_arg_of_pericenter": 276.8688,
        "meta_mean_anomaly": 83.1922,
        "meta_ephemeris_type": 0,
        "meta_classification_type": "U",
        "meta_norad_cat_id": 66962,
        "meta_element_set_no": 999,
        "meta_rev_at_epoch": 294,
        "meta_bstar": 1.1238e-05,
        "meta_mean_motion_dot": 2.007e-05,
        "meta_mean_motion_ddot": 0,
        "tle_line1": "1 66962U 25288D   25353.68114933  .00002007  00000+0  11238-4 0  9994",
        "tle_line2": "2 66962  43.0010 124.6533 0002308 276.8688  83.1922 15.83646759  2945"
      },
      "geometry": {
        "type": "Point",
        "coordinates": [
          -173.03020201195585,
          39.93412588546251
        ]
      }
    },
    {
      "type": "Feature",
      "properties": {
        "norad_id": 66963,
        "name": "STARLINK-36133",
        "group": "last-30-days",
        "lat": 40.91466746080059,
        "lon": -168.53831880153882,
        "alt_km": 315.94788212021194,
        "timestamp": "2025-12-19T22:41:51.098838+00:00",
        "meta_object_name": "STARLINK-36133",
        "meta_object_id": "2025-288E",
        "meta_epoch": "2025-12-19T17:50:45.619584",
        "meta_mean_motion": 15.83957851,
        "meta_eccentricity": 0.0001514,
        "meta_inclination": 43.0008,
        "meta_ra_of_asc_node": 124.2608,
        "meta_arg_of_pericenter": 260.8817,
        "meta_mean_anomaly": 99.1885,
        "meta_ephemeris_type": 0,
        "meta_classification_type": "U",
        "meta_norad_cat_id": 66963,
        "meta_element_set_no": 999,
        "meta_rev_at_epoch": 295,
        "meta_bstar": -0.0084552,
        "meta_mean_motion_dot": -0.01693738,
        "meta_mean_motion_ddot": 0,
        "tle_line1": "1 66963U 25288E   25353.74358356 -.01693738  00000+0 -84552-2 0  9998",
        "tle_line2": "2 66963  43.0008 124.2608 0001514 260.8817  99.1885 15.83957851  2951"
      },
      "geometry": {
        "type": "Point",
        "coordinates": [
          -168.53831880153882,
          40.91466746080059
        ]
      }
    },
    {
      "type": "Feature",
      "properties": {
        "norad_id": 66964,
        "name": "STARLINK-36104",
        "group": "last-30-days",
        "lat": 41.17313471776315,
        "lon": -167.17436037483293,
        "alt_km": 314.0613730420728,
        "timestamp": "2025-12-19T22:41:51.098848+00:00",
        "meta_object_name": "STARLINK-36104",
        "meta_object_id": "2025-288F",
        "meta_epoch": "2025-12-19T16:19:44.768064",
        "meta_mean_motion": 15.83830835,
        "meta_eccentricity": 0.0002213,
        "meta_inclination": 43.0012,
        "meta_ra_of_asc_node": 124.6474,
        "meta_arg_of_pericenter": 281.6407,
        "meta_mean_anomaly": 78.4217,
        "meta_ephemeris_type": 0,
        "meta_classification_type": "U",
        "meta_norad_cat_id": 66964,
        "meta_element_set_no": 999,
        "meta_rev_at_epoch": 294,
        "meta_bstar": 0.00081122,
        "meta_mean_motion_dot": 0.0018966,
        "meta_mean_motion_ddot": 0,
        "tle_line1": "1 66964U 25288F   25353.68037926  .00189660  00000+0  81122-3 0  9991",
        "tle_line2": "2 66964  43.0012 124.6474 0002213 281.6407  78.4217 15.83830835  2945"
      },
      "geometry": {
        "type": "Point",
        "coordinates": [
          -167.17436037483293,
          41.17313471776315
        ]
      }
    },
    {
      "type": "Feature",
      "properties": {
        "norad_id": 66965,
        "name": "STARLINK-36067",
        "group": "last-30-days",
        "lat": 41.413977235578216,
        "lon": -165.80187823536468,
        "alt_km": 316.37720090378116,
        "timestamp": "2025-12-19T22:41:51.098860+00:00",
        "meta_object_name": "STARLINK-36067",
        "meta_object_id": "2025-288G",
        "meta_epoch": "2025-12-19T17:50:08.356128",
        "meta_mean_motion": 15.8317375,
        "meta_eccentricity": 0.0002177,
        "meta_inclination": 43.0006,
        "meta_ra_of_asc_node": 124.2578,
        "meta_arg_of_pericenter": 299.0175,
        "meta_mean_anomaly": 61.0479,
        "meta_ephemeris_type": 0,
        "meta_classification_type": "U",
        "meta_norad_cat_id": 66965,
        "meta_element_set_no": 999,
        "meta_rev_at_epoch": 295,
        "meta_bstar": -0.001903,
        "meta_mean_motion_dot": -0.00404706,
        "meta_mean_motion_ddot": 0,
        "tle_line1": "1 66965U 25288G   25353.74315227 -.00404706  00000+0 -19030-2 0  9993",
        "tle_line2": "2 66965  43.0006 124.2578 0002177 299.0175  61.0479 15.83173750  2959"
      },
      "geometry": {
        "type": "Point",
        "coordinates": [
          -165.80187823536468,
          41.413977235578216
        ]
      }
    },
    {
      "type": "Feature",
      "properties": {
        "norad_id": 66966,
        "name": "STARLINK-36139",
        "group": "last-30-days",
        "lat": 41.99219812153814,
        "lon": -161.98228716128818,
        "alt_km": 315.38442853413017,
        "timestamp": "2025-12-19T22:41:51.098872+00:00",
        "meta_object_name": "STARLINK-36139",
        "meta_object_id": "2025-288H",
        "meta_epoch": "2025-12-19T17:49:27.560640",
        "meta_mean_motion": 15.83410061,
        "meta_eccentricity": 0.0001959,
        "meta_inclination": 43.001,
        "meta_ra_of_asc_node": 124.2538,
        "meta_arg_of_pericenter": 280.9041,
        "meta_mean_anomaly": 79.1611,
        "meta_ephemeris_type": 0,
        "meta_classification_type": "U",
        "meta_norad_cat_id": 66966,
        "meta_element_set_no": 999,
        "meta_rev_at_epoch": 295,
        "meta_bstar": -0.0002939,
        "meta_mean_motion_dot": -0.00066137,
        "meta_mean_motion_ddot": 0,
        "tle_line1": "1 66966U 25288H   25353.74268010 -.00066137  00000+0 -29390-3 0  9994",
        "tle_line2": "2 66966  43.0010 124.2538 0001959 280.9041  79.1611 15.83410061  2956"
      },
      "geometry": {
        "type": "Point",
        "coordinates": [
          -161.98228716128818,
          41.99219812153814
        ]
      }
    },
    {
      "type": "Feature",
      "properties": {
        "norad_id": 66967,
        "name": "STARLINK-36136",
        "group": "last-30-days",
        "lat": 42.368003931246996,
        "lon": -158.82353677569083,
        "alt_km": 315.95530421800595,
        "timestamp": "2025-12-19T22:41:51.098883+00:00",
        "meta_object_name": "STARLINK-36136",
        "meta_object_id": "2025-288J",
        "meta_epoch": "2025-12-19T14:47:13.778880",
        "meta_mean_motion": 15.83626352,
        "meta_eccentricity": 0.0002914,
        "meta_inclination": 43.0013,
        "meta_ra_of_asc_node": 125.0249,
        "meta_arg_of_pericenter": 249.6494,
        "meta_mean_anomaly": 110.4066,
        "meta_ephemeris_type": 0,
        "meta_classification_type": "U",
        "meta_norad_cat_id": 66967,
        "meta_element_set_no": 999,
        "meta_rev_at_epoch": 293,
        "meta_bstar": -0.0013646,
        "meta_mean_motion_dot": -0.00300264,
        "meta_mean_motion_ddot": 0,
        "tle_line1": "1 66967U 25288J   25353.61613170 -.00300264  00000+0 -13646-2 0  9990",
        "tle_line2": "2 66967  43.0013 125.0249 0002914 249.6494 110.4066 15.83626352  2937"
      },
      "geometry": {
        "type": "Point",
        "coordinates": [
          -158.82353677569083,
          42.368003931246996
        ]
      }
    },
    {
      "type": "Feature",
      "properties": {
        "norad_id": 66968,
        "name": "STARLINK-36152",
        "group": "last-30-days",
        "lat": 42.61215529876686,
        "lon": -156.18214990883615,
        "alt_km": 316.62677261350836,
        "timestamp": "2025-12-19T22:41:51.098893+00:00",
        "meta_object_name": "STARLINK-36152",
        "meta_object_id": "2025-288K",
        "meta_epoch": "2025-12-19T17:48:17.883360",
        "meta_mean_motion": 15.83117105,
        "meta_eccentricity": 0.0002296,
        "meta_inclination": 43.0011,
        "meta_ra_of_asc_node": 124.2463,
        "meta_arg_of_pericenter": 294.3972,
        "meta_mean_anomaly": 65.666,
        "meta_ephemeris_type": 0,
        "meta_classification_type": "U",
        "meta_norad_cat_id": 66968,
        "meta_element_set_no": 999,
        "meta_rev_at_epoch": 295,
        "meta_bstar": -0.0019503,
        "meta_mean_motion_dot": -0.00413243,
        "meta_mean_motion_ddot": 0,
        "tle_line1": "1 66968U 25288K   25353.74187365 -.00413243  00000+0 -19503-2 0  9997",
        "tle_line2": "2 66968  43.0011 124.2463 0002296 294.3972  65.6660 15.83117105  2950"
      },
      "geometry": {
        "type": "Point",
        "coordinates": [
          -156.18214990883615,
          42.61215529876686
        ]
      }
    }
  ]
}